STARLINK-34420          
1 64483U 25133M   25274.91711603  .00121587  00000+0  30012-2 0  9998
2 64483  53.1567 137.5453 0001077  92.6195 267.4933 15.39622089 16836
STARLINK-34509          
1 64484U 25133N   25274.91678935  .00125961  00000+0  31021-2 0  9990
2 64484  53.1568 137.5423 0000972 130.3734 229.7355 15.39670534 16834
STARLINK-34409          
1 64485U 25133P   25275.04230088  .00083521  00000+0  20740-2 0  9990
2 64485  53.1575 136.9040 0001217  76.1542 283.9598 15.39637951 16857
STARLINK-34520          
1 64486U 25133Q   25274.91213564  .00071593  00000+0  17836-2 0  9994
2 64486  53.1572 137.5134 0001152  87.4869 272.6268 15.39611270 16834
STARLINK-34477          
1 64487U 25133R   25275.03765696  .00062523  00000+0  15601-2 0  9998
2 64487  53.1571 136.8734 0001313  79.1524 280.9628 15.39623985 16857
STARLINK-34217          
1 64488U 25133S   25275.03732023  .00082702  00000+0  20545-2 0  9991
2 64488  53.1569 136.8716 0001077  91.4148 268.6980 15.39629436 16740
STARLINK-34307          
1 64489U 25133T   25275.03301400  .00060334  00000+0  15063-2 0  9999
2 64489  53.1571 136.8436 0001270  80.7642 279.3506 15.39622514 16831
STARLINK-34505          
1 64490U 25133U   25274.90284789  .00062611  00000+0  15630-2 0  9996
2 64490  53.1571 137.4529 0001069  84.1576 275.9550 15.39608289 16815
STARLINK-34530          
1 64491U 25133V   25275.02837162  .00055722  00000+0  13929-2 0  9994
2 64491  53.1577 136.8134 0001208  88.5202 271.5941 15.39618443 16837
STARLINK-34522          
1 64492U 25133W   25275.02803448  .00065561  00000+0  16348-2 0  9995
2 64492  53.1571 136.8118 0001202  71.7938 288.3197 15.39623432 16853
STARLINK-34462          
1 64493U 25133X   25275.02372764  .00048854  00000+0  12228-2 0  9997
2 64493  53.1577 136.7829 0000794  90.6219 269.4877 15.39636535 16858
STARLINK-34226          
1 64494U 25133Y   25275.02339104  .00076687  00000+0  19069-2 0  9994
2 64494  53.1577 136.7824 0001223  82.4610 277.6534 15.39636199 16684
STARLINK-34364          
1 64495U 25133Z   25274.97150062  .00071398  00000+0  17779-2 0  9992
2 64495  53.1601 132.8820 0001033  91.7382 268.3741 15.39626958 16908
STARLINK-34268          
1 64496U 25133AA  25274.95416854  .00092037  00000+0  22837-2 0  9999
2 64496  53.1583 137.0594 0001352  85.2766 274.8394 15.39614116 16843
STARLINK-34363          
1 64497U 25133AB  25274.88461116  .00096772  00000+0  23980-2 0  9993
2 64497  53.1584 137.3357 0001183  77.3538 282.7599 15.39629049 16831
STARLINK-34427          
1 64498U 25133AC  25274.88429690  .00081952  00000+0  20368-2 0  9996
2 64498  53.1586 137.3343 0001054  99.5856 260.5268 15.39620008 16838
