[{"OBJECT_NAME":"STARLINK-34420","OBJECT_ID":"2025-133M","EPOCH":"2025-10-01T22:00:38.824992","MEAN_MOTION":15.39622089,"ECCENTRICITY":0.0001077,"INCLINATION":53.1567,"RA_OF_ASC_NODE":137.5453,"ARG_OF_PERICENTER":92.6195,"MEAN_ANOMALY":267.4933,"EPHEMERIS_TYPE":0,"CLASSIFICATION_TYPE":"U","NORAD_CAT_ID":64483,"ELEMENT_SET_NO":999,"REV_AT_EPOCH":1683,"BSTAR":0.0030012,"MEAN_MOTION_DOT":0.00121587,"MEAN_MOTION_DDOT":0},{"OBJECT_NAME":"STARLINK-34509","OBJECT_ID":"2025-133N","EPOCH":"2025-10-01T22:00:10.599840","MEAN_MOTION":15.39670534,"ECCENTRICITY":9.72e-5,"INCLINATION":53.1568,"RA_OF_ASC_NODE":137.5423,"ARG_OF_PERICENTER":130.3734,"MEAN_ANOMALY":229.7355,"EPHEMERIS_TYPE":0,"CLASSIFICATION_TYPE":"U","NORAD_CAT_ID":64484,"ELEMENT_SET_NO":999,"REV_AT_EPOCH":1683,"BSTAR":0.0031021,"MEAN_MOTION_DOT":0.00125961,"MEAN_MOTION_DDOT":0},{"OBJECT_NAME":"STARLINK-34409","OBJECT_ID":"2025-133P","EPOCH":"2025-10-02T01:00:54.796032","MEAN_MOTION":15.39637951,"ECCENTRICITY":0.0001217,"INCLINATION":53.1575,"RA_OF_ASC_NODE":136.904,"ARG_OF_PERICENTER":76.1542,"MEAN_ANOMALY":283.9598,"EPHEMERIS_TYPE":0,"CLASSIFICATION_TYPE":"U","NORAD_CAT_ID":64485,"ELEMENT_SET_NO":999,"REV_AT_EPOCH":1685,"BSTAR":0.002074,"MEAN_MOTION_DOT":0.00083521,"MEAN_MOTION_DDOT":0},{"OBJECT_NAME":"STARLINK-34520","OBJECT_ID":"2025-133Q","EPOCH":"2025-10-01T21:53:28.519296","MEAN_MOTION":15.3961127,"ECCENTRICITY":0.0001152,"INCLINATION":53.1572,"RA_OF_ASC_NODE":137.5134,"ARG_OF_PERICENTER":87.4869,"MEAN_ANOMALY":272.6268,"EPHEMERIS_TYPE":0,"CLASSIFICATION_TYPE":"U","NORAD_CAT_ID":64486,"ELEMENT_SET_NO":999,"REV_AT_EPOCH":1683,"BSTAR":0.0017836,"MEAN_MOTION_DOT":0.00071593,"MEAN_MOTION_DDOT":0},{"OBJECT_NAME":"STARLINK-34477","OBJECT_ID":"2025-133R","EPOCH":"2025-10-02T00:54:13.561344","MEAN_MOTION":15.39623985,"ECCENTRICITY":0.0001313,"INCLINATION":53.1571,"RA_OF_ASC_NODE":136.8734,"ARG_OF_PERICENTER":79.1524,"MEAN_ANOMALY":280.9628,"EPHEMERIS_TYPE":0,"CLASSIFICATION_TYPE":"U","NORAD_CAT_ID":64487,"ELEMENT_SET_NO":999,"REV_AT_EPOCH":1685,"BSTAR":0.0015601,"MEAN_MOTION_DOT":0.00062523,"MEAN_MOTION_DDOT":0},{"OBJECT_NAME":"STARLINK-34217","OBJECT_ID":"2025-133S","EPOCH":"2025-10-02T00:53:44.467872","MEAN_MOTION":15.39629436,"ECCENTRICITY":0.0001077,"INCLINATION":53.1569,"RA_OF_ASC_NODE":136.8716,"ARG_OF_PERICENTER":91.4148,"MEAN_ANOMALY":268.698,"EPHEMERIS_TYPE":0,"CLASSIFICATION_TYPE":"U","NORAD_CAT_ID":64488,"ELEMENT_SET_NO":999,"REV_AT_EPOCH":1674,"BSTAR":0.0020545,"MEAN_MOTION_DOT":0.00082702,"MEAN_MOTION_DDOT":0},{"OBJECT_NAME":"STARLINK-34307","OBJECT_ID":"2025-133T","EPOCH":"2025-10-02T00:47:32.409600","MEAN_MOTION":15.39622514,"ECCENTRICITY":0.000127,"INCLINATION":53.1571,"RA_OF_ASC_NODE":136.8436,"ARG_OF_PERICENTER":80.7642,"MEAN_ANOMALY":279.3506,"EPHEMERIS_TYPE":0,"CLASSIFICATION_TYPE":"U","NORAD_CAT_ID":64489,"ELEMENT_SET_NO":999,"REV_AT_EPOCH":1683,"BSTAR":0.0015063,"MEAN_MOTION_DOT":0.00060334,"MEAN_MOTION_DDOT":0},{"OBJECT_NAME":"STARLINK-34505","OBJECT_ID":"2025-133U","EPOCH":"2025-10-01T21:40:06.057696","MEAN_MOTION":15.39608289,"ECCENTRICITY":0.0001069,"INCLINATION":53.1571,"RA_OF_ASC_NODE":137.4529,"ARG_OF_PERICENTER":84.1576,"MEAN_ANOMALY":275.955,"EPHEMERIS_TYPE":0,"CLASSIFICATION_TYPE":"U","NORAD_CAT_ID":64490,"ELEMENT_SET_NO":999,"REV_AT_EPOCH":1681,"BSTAR":0.001563,"MEAN_MOTION_DOT":0.00062611,"MEAN_MOTION_DDOT":0},{"OBJECT_NAME":"STARLINK-34530","OBJECT_ID":"2025-133V","EPOCH":"2025-10-02T00:40:51.307968","MEAN_MOTION":15.39618443,"ECCENTRICITY":0.0001208,"INCLINATION":53.1577,"RA_OF_ASC_NODE":136.8134,"ARG_OF_PERICENTER":88.5202,"MEAN_ANOMALY":271.5941,"EPHEMERIS_TYPE":0,"CLASSIFICATION_TYPE":"U","NORAD_CAT_ID":64491,"ELEMENT_SET_NO":999,"REV_AT_EPOCH":1683,"BSTAR":0.0013929,"MEAN_MOTION_DOT":0.00055722,"MEAN_MOTION_DDOT":0},{"OBJECT_NAME":"STARLINK-34522","OBJECT_ID":"2025-133W","EPOCH":"2025-10-02T00:40:22.179072","MEAN_MOTION":15.39623432,"ECCENTRICITY":0.0001202,"INCLINATION":53.1571,"RA_OF_ASC_NODE":136.8118,"ARG_OF_PERICENTER":71.7938,"MEAN_ANOMALY":288.3197,"EPHEMERIS_TYPE":0,"CLASSIFICATION_TYPE":"U","NORAD_CAT_ID":64492,"ELEMENT_SET_NO":999,"REV_AT_EPOCH":1685,"BSTAR":0.0016348,"MEAN_MOTION_DOT":0.00065561,"MEAN_MOTION_DDOT":0},{"OBJECT_NAME":"STARLINK-34462","OBJECT_ID":"2025-133X","EPOCH":"2025-10-02T00:34:10.068096","MEAN_MOTION":15.39636535,"ECCENTRICITY":7.94e-5,"INCLINATION":53.1577,"RA_OF_ASC_NODE":136.7829,"ARG_OF_PERICENTER":90.6219,"MEAN_ANOMALY":269.4877,"EPHEMERIS_TYPE":0,"CLASSIFICATION_TYPE":"U","NORAD_CAT_ID":64493,"ELEMENT_SET_NO":999,"REV_AT_EPOCH":1685,"BSTAR":0.0012228,"MEAN_MOTION_DOT":0.00048854,"MEAN_MOTION_DDOT":0},{"OBJECT_NAME":"STARLINK-34226","OBJECT_ID":"2025-133Y","EPOCH":"2025-10-02T00:33:40.985856","MEAN_MOTION":15.39636199,"ECCENTRICITY":0.0001223,"INCLINATION":53.1577,"RA_OF_ASC_NODE":136.7824,"ARG_OF_PERICENTER":82.461,"MEAN_ANOMALY":277.6534,"EPHEMERIS_TYPE":0,"CLASSIFICATION_TYPE":"U","NORAD_CAT_ID":64494,"ELEMENT_SET_NO":999,"REV_AT_EPOCH":1668,"BSTAR":0.0019069,"MEAN_MOTION_DOT":0.00076687,"MEAN_MOTION_DDOT":0},{"OBJECT_NAME":"STARLINK-34364","OBJECT_ID":"2025-133Z","EPOCH":"2025-10-01T23:18:57.653568","MEAN_MOTION":15.39626958,"ECCENTRICITY":0.0001033,"INCLINATION":53.1601,"RA_OF_ASC_NODE":132.882,"ARG_OF_PERICENTER":91.7382,"MEAN_ANOMALY":268.3741,"EPHEMERIS_TYPE":0,"CLASSIFICATION_TYPE":"U","NORAD_CAT_ID":64495,"ELEMENT_SET_NO":999,"REV_AT_EPOCH":1690,"BSTAR":0.0017779,"MEAN_MOTION_DOT":0.00071398,"MEAN_MOTION_DDOT":0},{"OBJECT_NAME":"STARLINK-34268","OBJECT_ID":"2025-133AA","EPOCH":"2025-10-01T22:54:00.161856","MEAN_MOTION":15.39614116,"ECCENTRICITY":0.0001352,"INCLINATION":53.1583,"RA_OF_ASC_NODE":137.0594,"ARG_OF_PERICENTER":85.2766,"MEAN_ANOMALY":274.8394,"EPHEMERIS_TYPE":0,"CLASSIFICATION_TYPE":"U","NORAD_CAT_ID":64496,"ELEMENT_SET_NO":999,"REV_AT_EPOCH":1684,"BSTAR":0.0022837,"MEAN_MOTION_DOT":0.00092037,"MEAN_MOTION_DDOT":0},{"OBJECT_NAME":"STARLINK-34363","OBJECT_ID":"2025-133AB","EPOCH":"2025-10-01T21:13:50.404224","MEAN_MOTION":15.39629049,"ECCENTRICITY":0.0001183,"INCLINATION":53.1584,"RA_OF_ASC_NODE":137.3357,"ARG_OF_PERICENTER":77.3538,"MEAN_ANOMALY":282.7599,"EPHEMERIS_TYPE":0,"CLASSIFICATION_TYPE":"U","NORAD_CAT_ID":64497,"ELEMENT_SET_NO":999,"REV_AT_EPOCH":1683,"BSTAR":0.002398,"MEAN_MOTION_DOT":0.00096772,"MEAN_MOTION_DDOT":0},{"OBJECT_NAME":"STARLINK-34427","OBJECT_ID":"2025-133AC","EPOCH":"2025-10-01T21:13:23.252160","MEAN_MOTION":15.39620008,"ECCENTRICITY":0.0001054,"INCLINATION":53.1586,"RA_OF_ASC_NODE":137.3343,"ARG_OF_PERICENTER":99.5856,"MEAN_ANOMALY":260.5268,"EPHEMERIS_TYPE":0,"CLASSIFICATION_TYPE":"U","NORAD_CAT_ID":64498,"ELEMENT_SET_NO":999,"REV_AT_EPOCH":1683,"BSTAR":0.0020368,"MEAN_MOTION_DOT":0.00081952,"MEAN_MOTION_DDOT":0}]
